COSMOS 2251 DEB         
1 37340U 93036BLG 25324.66329530  .00000584  00000+0  20598-3 0  9991
2 37340  74.0243 317.7704 0016894  59.6658 300.6164 14.36883882837509
COSMOS 2251 DEB         
1 37483U 93036BLL 25323.35700733  .00000949  00000+0  27446-3 0  9996
2 37483  73.9737 186.9568 0092058  38.9562 321.8179 14.43508054649423
COSMOS 2251 DEB         
1 37484U 93036BLM 25320.52684321  .00005030  00000+0  15377-2 0  9992
2 37484  73.8244 257.6387 0040604 296.1823 184.0623 14.41613747650013
COSMOS 2251 DEB         
1 37486U 93036BLP 25321.30338422  .00006466  00000+0  27108-2 0  9998
2 37486  73.6911 160.5787 0228513  32.4566 144.7289 14.13049292630108
COSMOS 2251 DEB         
1 37487U 93036BLQ 25324.50069396  .00021743  00000+0  28754-2 0  9998
2 37487  73.9058 236.2682 0024713  77.6224 282.7716 14.79689673809164
COSMOS 2251 DEB         
1 37491U 93036BLU 25324.66874419  .00002236  00000+0  16321-2 0  9993
2 37491  73.9057 311.0938 0318418 308.0224  49.2537 13.75169529554435
COSMOS 2251 DEB         
1 37498U 93036BMB 25321.46359687  .00006746  00000+0  15835-2 0  9999
2 37498  74.0377 231.7018 0013125 295.1711  64.8090 14.54592180649871
COSMOS 2251 DEB         
1 37499U 93036BMC 25325.52792771  .00000395  00000+0  14918-3 0  9992
2 37499  74.0381   1.0232 0026455  83.9415 276.4751 14.34315106848456
COSMOS 2251 DEB         
1 37515U 93036BMU 25324.91927066  .00908046  00000+0  10665-1 0  9993
2 37515  74.0877 296.5288 0024044 186.0260 174.0673 15.58577606854435
COSMOS 2251 DEB         
1 37528U 93036BNH 25321.31951155  .00002225  00000+0  57512-3 0  9992
2 37528  74.0363 169.9026 0020510 320.9766  38.9914 14.50401192855621
COSMOS 2251 DEB         
1 37530U 93036BNK 25323.42927326  .00000681  00000+0  25014-3 0  9998
2 37530  74.0379  16.3332 0025343  86.1810 293.5357 14.34463157848988
COSMOS 2251 DEB         
1 37532U 93036BNM 25321.10139075  .00001631  00000+0  50085-3 0  9991
2 37532  74.0502 263.2300 0015007   8.1264   7.0658 14.42348821845460
COSMOS 2251 DEB         
1 37533U 93036BNN 25320.10489186  .00005020  00000+0  24447-2 0  9990
2 37533  74.0675 238.7498 0159593 301.2164  57.3418 14.11962055625456
COSMOS 2251 DEB         
1 37535U 93036BNQ 25325.42946801  .00004165  00000+0  90315-3 0  9991
2 37535  74.0222 114.0874 0028418 255.3889 135.5481 14.58218443850145
