[{
    "OBJECT_NAME": "COSMOS 2251 DEB",
    "OBJECT_ID": "1993-036BLG",
    "EPOCH": "2025-11-20T15:55:08.713920",
    "MEAN_MOTION": 14.36883882,
    "ECCENTRICITY": 0.00168946,
    "INCLINATION": 74.0243,
    "RA_OF_ASC_NODE": 317.7704,
    "ARG_OF_PERICENTER": 59.6658,
    "MEAN_ANOMALY": 300.6164,
    "EPHEMERIS_TYPE": 0,
    "CLASSIFICATION_TYPE": "U",
    "NORAD_CAT_ID": 37340,
    "ELEMENT_SET_NO": 999,
    "REV_AT_EPOCH": 83750,
    "BSTAR": 0.00020598282,
    "MEAN_MOTION_DOT": 5.84e-6,
    "MEAN_MOTION_DDOT": 0
},{
    "OBJECT_NAME": "COSMOS 2251 DEB",
    "OBJECT_ID": "1993-036BLL",
    "EPOCH": "2025-11-19T08:34:05.433312",
    "MEAN_MOTION": 14.43508054,
    "ECCENTRICITY": 0.00920589,
    "INCLINATION": 73.9737,
    "RA_OF_ASC_NODE": 186.9568,
    "ARG_OF_PERICENTER": 38.9562,
    "MEAN_ANOMALY": 321.8179,
    "EPHEMERIS_TYPE": 0,
    "CLASSIFICATION_TYPE": "U",
    "NORAD_CAT_ID": 37483,
    "ELEMENT_SET_NO": 999,
    "REV_AT_EPOCH": 64942,
    "BSTAR": 0.00027445772,
    "MEAN_MOTION_DOT": 9.49e-6,
    "MEAN_MOTION_DDOT": 0
},{
    "OBJECT_NAME": "COSMOS 2251 DEB",
    "OBJECT_ID": "1993-036BLM",
    "EPOCH": "2025-11-16T12:38:39.253344",
    "MEAN_MOTION": 14.41613747,
    "ECCENTRICITY": 0.00406047,
    "INCLINATION": 73.8244,
    "RA_OF_ASC_NODE": 257.6387,
    "ARG_OF_PERICENTER": 296.1823,
    "MEAN_ANOMALY": 184.0623,
    "EPHEMERIS_TYPE": 0,
    "CLASSIFICATION_TYPE": "U",
    "NORAD_CAT_ID": 37484,
    "ELEMENT_SET_NO": 999,
    "REV_AT_EPOCH": 65001,
    "BSTAR": 0.001537748,
    "MEAN_MOTION_DOT": 5.03e-5,
    "MEAN_MOTION_DDOT": 0
},{
    "OBJECT_NAME": "COSMOS 2251 DEB",
    "OBJECT_ID": "1993-036BLP",
    "EPOCH": "2025-11-17T07:16:52.396608",
    "MEAN_MOTION": 14.13049292,
    "ECCENTRICITY": 0.02285133,
    "INCLINATION": 73.6911,
    "RA_OF_ASC_NODE": 160.5787,
    "ARG_OF_PERICENTER": 32.4566,
    "MEAN_ANOMALY": 144.7289,
    "EPHEMERIS_TYPE": 0,
    "CLASSIFICATION_TYPE": "U",
    "NORAD_CAT_ID": 37486,
    "ELEMENT_SET_NO": 999,
    "REV_AT_EPOCH": 63010,
    "BSTAR": 0.0027107941,
    "MEAN_MOTION_DOT": 6.466e-5,
    "MEAN_MOTION_DDOT": 0
},{
    "OBJECT_NAME": "COSMOS 2251 DEB",
    "OBJECT_ID": "1993-036BLQ",
    "EPOCH": "2025-11-20T12:00:59.958144",
    "MEAN_MOTION": 14.79689673,
    "ECCENTRICITY": 0.00247133,
    "INCLINATION": 73.9058,
    "RA_OF_ASC_NODE": 236.2682,
    "ARG_OF_PERICENTER": 77.6224,
    "MEAN_ANOMALY": 282.7716,
    "EPHEMERIS_TYPE": 0,
    "CLASSIFICATION_TYPE": "U",
    "NORAD_CAT_ID": 37487,
    "ELEMENT_SET_NO": 999,
    "REV_AT_EPOCH": 80916,
    "BSTAR": 0.0028753576,
    "MEAN_MOTION_DOT": 0.00021743,
    "MEAN_MOTION_DDOT": 0
},{
    "OBJECT_NAME": "COSMOS 2251 DEB",
    "OBJECT_ID": "1993-036BLU",
    "EPOCH": "2025-11-20T16:02:59.498016",
    "MEAN_MOTION": 13.75169529,
    "ECCENTRICITY": 0.03184187,
    "INCLINATION": 73.9057,
    "RA_OF_ASC_NODE": 311.0938,
    "ARG_OF_PERICENTER": 308.0224,
    "MEAN_ANOMALY": 49.2537,
    "EPHEMERIS_TYPE": 0,
    "CLASSIFICATION_TYPE": "U",
    "NORAD_CAT_ID": 37491,
    "ELEMENT_SET_NO": 999,
    "REV_AT_EPOCH": 55443,
    "BSTAR": 0.0016320926,
    "MEAN_MOTION_DOT": 2.236e-5,
    "MEAN_MOTION_DDOT": 0
},{
    "OBJECT_NAME": "COSMOS 2251 DEB",
    "OBJECT_ID": "1993-036BMB",
    "EPOCH": "2025-11-17T11:07:34.769568",
    "MEAN_MOTION": 14.5459218,
    "ECCENTRICITY": 0.00131259,
    "INCLINATION": 74.0377,
    "RA_OF_ASC_NODE": 231.7018,
    "ARG_OF_PERICENTER": 295.1711,
    "MEAN_ANOMALY": 64.809,
    "EPHEMERIS_TYPE": 0,
    "CLASSIFICATION_TYPE": "U",
    "NORAD_CAT_ID": 37498,
    "ELEMENT_SET_NO": 999,
    "REV_AT_EPOCH": 64987,
    "BSTAR": 0.0015834766,
    "MEAN_MOTION_DOT": 6.746e-5,
    "MEAN_MOTION_DDOT": 0
},{
    "OBJECT_NAME": "COSMOS 2251 DEB",
    "OBJECT_ID": "1993-036BMC",
    "EPOCH": "2025-11-21T12:40:12.954144",
    "MEAN_MOTION": 14.34315106,
    "ECCENTRICITY": 0.0026455,
    "INCLINATION": 74.0381,
    "RA_OF_ASC_NODE": 1.0232,
    "ARG_OF_PERICENTER": 83.9415,
    "MEAN_ANOMALY": 276.4751,
    "EPHEMERIS_TYPE": 0,
    "CLASSIFICATION_TYPE": "U",
    "NORAD_CAT_ID": 37499,
    "ELEMENT_SET_NO": 999,
    "REV_AT_EPOCH": 84845,
    "BSTAR": 0.00014918,
    "MEAN_MOTION_DOT": 3.95e-6,
    "MEAN_MOTION_DDOT": 0
},{
    "OBJECT_NAME": "COSMOS 2251 DEB",
    "OBJECT_ID": "1993-036BMU",
    "EPOCH": "2025-11-20T22:03:44.985024",
    "MEAN_MOTION": 15.58577606,
    "ECCENTRICITY": 0.0024044,
    "INCLINATION": 74.0877,
    "RA_OF_ASC_NODE": 296.5288,
    "ARG_OF_PERICENTER": 186.026,
    "MEAN_ANOMALY": 174.0673,
    "EPHEMERIS_TYPE": 0,
    "CLASSIFICATION_TYPE": "U",
    "NORAD_CAT_ID": 37515,
    "ELEMENT_SET_NO": 999,
    "REV_AT_EPOCH": 85443,
    "BSTAR": 0.010665,
    "MEAN_MOTION_DOT": 0.00908046,
    "MEAN_MOTION_DDOT": 0
},{
    "OBJECT_NAME": "COSMOS 2251 DEB",
    "OBJECT_ID": "1993-036BNH",
    "EPOCH": "2025-11-17T07:40:05.797920",
    "MEAN_MOTION": 14.50401192,
    "ECCENTRICITY": 0.00205101,
    "INCLINATION": 74.0363,
    "RA_OF_ASC_NODE": 169.9026,
    "ARG_OF_PERICENTER": 320.9766,
    "MEAN_ANOMALY": 38.9914,
    "EPHEMERIS_TYPE": 0,
    "CLASSIFICATION_TYPE": "U",
    "NORAD_CAT_ID": 37528,
    "ELEMENT_SET_NO": 999,
    "REV_AT_EPOCH": 85562,
    "BSTAR": 0.00057511991,
    "MEAN_MOTION_DOT": 2.225e-5,
    "MEAN_MOTION_DDOT": 0
},{
    "OBJECT_NAME": "COSMOS 2251 DEB",
    "OBJECT_ID": "1993-036BNK",
    "EPOCH": "2025-11-19T10:18:09.209664",
    "MEAN_MOTION": 14.34463157,
    "ECCENTRICITY": 0.00253436,
    "INCLINATION": 74.0379,
    "RA_OF_ASC_NODE": 16.3332,
    "ARG_OF_PERICENTER": 86.181,
    "MEAN_ANOMALY": 293.5357,
    "EPHEMERIS_TYPE": 0,
    "CLASSIFICATION_TYPE": "U",
    "NORAD_CAT_ID": 37530,
    "ELEMENT_SET_NO": 999,
    "REV_AT_EPOCH": 84898,
    "BSTAR": 0.00025014259,
    "MEAN_MOTION_DOT": 6.81e-6,
    "MEAN_MOTION_DDOT": 0
},{
    "OBJECT_NAME": "COSMOS 2251 DEB",
    "OBJECT_ID": "1993-036BNM",
    "EPOCH": "2025-11-17T02:26:00.160800",
    "MEAN_MOTION": 14.42348821,
    "ECCENTRICITY": 0.00150079,
    "INCLINATION": 74.0502,
    "RA_OF_ASC_NODE": 263.23,
    "ARG_OF_PERICENTER": 8.1264,
    "MEAN_ANOMALY": 7.0658,
    "EPHEMERIS_TYPE": 0,
    "CLASSIFICATION_TYPE": "U",
    "NORAD_CAT_ID": 37532,
    "ELEMENT_SET_NO": 999,
    "REV_AT_EPOCH": 84546,
    "BSTAR": 0.00050084664,
    "MEAN_MOTION_DOT": 1.631e-5,
    "MEAN_MOTION_DDOT": 0
},{
    "OBJECT_NAME": "COSMOS 2251 DEB",
    "OBJECT_ID": "1993-036BNN",
    "EPOCH": "2025-11-16T02:31:02.656704",
    "MEAN_MOTION": 14.11962055,
    "ECCENTRICITY": 0.01595931,
    "INCLINATION": 74.0675,
    "RA_OF_ASC_NODE": 238.7498,
    "ARG_OF_PERICENTER": 301.2164,
    "MEAN_ANOMALY": 57.3418,
    "EPHEMERIS_TYPE": 0,
    "CLASSIFICATION_TYPE": "U",
    "NORAD_CAT_ID": 37533,
    "ELEMENT_SET_NO": 999,
    "REV_AT_EPOCH": 62545,
    "BSTAR": 0.0024447387,
    "MEAN_MOTION_DOT": 5.02e-5,
    "MEAN_MOTION_DDOT": 0
},{
    "OBJECT_NAME": "COSMOS 2251 DEB",
    "OBJECT_ID": "1993-036BNQ",
    "EPOCH": "2025-11-21T10:18:26.036064",
    "MEAN_MOTION": 14.58218443,
    "ECCENTRICITY": 0.0028418,
    "INCLINATION": 74.0222,
    "RA_OF_ASC_NODE": 114.0874,
    "ARG_OF_PERICENTER": 255.3889,
    "MEAN_ANOMALY": 135.5481,
    "EPHEMERIS_TYPE": 0,
    "CLASSIFICATION_TYPE": "U",
    "NORAD_CAT_ID": 37535,
    "ELEMENT_SET_NO": 999,
    "REV_AT_EPOCH": 85014,
    "BSTAR": 0.00090315,
    "MEAN_MOTION_DOT": 4.165e-5,
    "MEAN_MOTION_DDOT": 0
}]
